STARLINK-37363          
1 69158C 26111L   26187.51229167  .00072603  00000+0  21450-2 0  1877
2 69158  53.1581  61.0544 0000623  99.6529 170.2345 15.34356661    18
STARLINK-37343          
1 69159C 26111M   26187.58520833  .00069235  00000+0  19822-2 0  1876
2 69159  53.1599  60.7349 0001763 103.2148 213.0199 15.35341638    14
STARLINK-37328          
1 69160C 26111N   26187.52895833  .00074736  00000+0  22061-2 0  1878
2 69160  53.1588  60.9286 0000981  87.4232 297.7274 15.34382383    18
STARLINK-37311          
1 69161C 26111P   26187.52062500  .00075914  00000+0  22400-2 0  1872
2 69161  53.1588  60.9470 0001240  95.0494 255.7043 15.34393123    10
STARLINK-36286          
1 69162C 26111Q   26187.55326389  .00009035  00000+0  26655-3 0  1872
2 69162  53.1590  60.7784 0001274  95.3494  87.4472 15.34433225    14
STARLINK-37196          
1 69163C 26111R   26187.54076389  .00066680  00000+0  19708-2 0  1873
2 69163  53.1592  60.8059 0001189  85.7986  39.7466 15.34346361    14
STARLINK-36288          
1 69164C 26111S   26187.54909722  .00064895  00000+0  19150-2 0  1877
2 69164  53.1593  60.7521 0001052  96.3662  86.6436 15.34396276    15
STARLINK-37445          
1 69165C 26111T   26187.55395833  .00067572  00000+0  19306-2 0  1879
2 69165  53.1596  60.7139 0001204  93.4042 125.3517 15.35408974    14
STARLINK-37491          
1 69166C 26111U   26187.52479167 -.00271770  00000+0 -77754-2 0  1870
2 69166  53.1592  60.8193 0001080  80.3991 349.8233 15.35535428    15
STARLINK-37474          
1 69167C 26111V   26187.50743056  .00073383  00000+0  21656-2 0  1878
2 69167  53.1595  60.8693 0001224  92.1342 255.4754 15.34390934    15
STARLINK-37469          
1 69168C 26111W   26187.55743056 -.00376570  00000+0 -67677-2 0  1873
2 69168  53.1580  60.8933 0001500 115.4996  35.6356 15.49451523    12
STARLINK-37515          
1 69169C 26111X   26187.53243056  .00039965  00000+0  11803-2 0  1879
2 69169  53.1594  60.7111 0000990 110.4972  38.6226 15.34383080    11
STARLINK-37437          
1 69170C 26111Y   26187.50187500  .00071776  00000+0  21204-2 0  1871
2 69170  53.1598  60.8269 0001233  86.9125 264.9448 15.34357944    10
STARLINK-37392          
1 69171C 26111Z   26187.57340278  .00029878  00000+0  88150-3 0  1872
2 69171  53.1591  60.3781 0001478 114.4692 330.8091 15.34419425    15
STARLINK-37472          
1 69172C 26111AA  26187.60881944  .00055705  00000+0  15911-2 0  1879
2 69172  53.1599  60.2483 0001190  98.8773 167.9428 15.35424021    10
STARLINK-37461          
1 69173C 26111AB  26187.57201389  .00067710  00000+0  12138-2 0  1872
2 69173  53.1583  60.7310 0001250  93.1601 184.6933 15.49301351    15
STARLINK-37333          
1 69174C 26111AC  26187.59840278 -.00063572  00000+0 -18162-2 0  1878
2 69174  53.1598  60.3472 0000440 202.5140 340.5553 15.35475940    13
STARLINK-37385          
1 69175C 26111AD  26187.59354167 -.02119300  00000+0 -42668-1 0  1876
2 69175  53.1593  60.5427 0001203  98.1429 340.6143 15.47062761    10
STARLINK-37414          
1 69176C 26111AE  26187.55187500  .00072315  00000+0  21335-2 0  1877
2 69176  53.1591  60.5025 0001207  99.0409 215.5998 15.34399439    14
STARLINK-37380          
1 69182C 26114A   26187.55534722  .00034201  00000+0  10098-2 0  1875
2 69182  53.1591 109.0888 0001258  94.3074 208.1501 15.34393630    14
STARLINK-37089          
1 69183C 26114B   26187.58937500  .00051520  00000+0  15205-2 0  1878
2 69183  53.1591 108.9080 0000847  68.4839  73.6750 15.34399561    11
STARLINK-37428          
1 69184C 26114C   26187.55465278  .00035212  00000+0  10074-2 0  1873
2 69184  53.1592 109.1124 0001310  79.6730 211.3199 15.35381124    10
STARLINK-37237          
1 69185C 26114D   26187.54840278  .00031165  00000+0  89223-3 0  1876
2 69185  53.1590 109.1048 0001501  93.7578 181.2211 15.35362844    11
STARLINK-37365          
1 69186C 26114E   26187.58451389  .00053645  00000+0  15334-2 0  1870
2 69186  53.1588 108.9125 0000899 149.1742 336.5093 15.35400466    16
STARLINK-37209          
1 69187C 26114F   26187.51993056  .00016623  00000+0  47560-3 0  1878
2 69187  53.1587 109.1918 0000792  90.7604  49.5936 15.35390945    16
STARLINK-37359          
1 69188C 26114G   26187.57826389  .00050157  00000+0  14336-2 0  1873
2 69188  53.1583 108.8787 0001168 102.1811  18.2454 15.35403488    14
STARLINK-37440          
1 69189C 26114H   26187.54423611 -.01713400  00000+0 -46691-1 0  1870
2 69189  53.1592 109.0533 0001261 116.4659 165.8058 15.37773085    13
STARLINK-37282          
1 69190C 26114J   26187.50118056  .00008044  00000+0  23009-3 0  1870
2 69190  53.1580 109.1594 0001235  96.9425 355.5511 15.35403411    17
STARLINK-37422          
1 69191C 26114K   26187.55465278  .00036462  00000+0  10423-2 0  1877
2 69191  53.1578 108.9262 0001177  92.6451 284.5359 15.35406669    10
STARLINK-37424          
1 69192C 26114L   26187.60465278  .00063450  00000+0  18730-2 0  1870
2 69192  53.1580 108.6187 0001099  94.3716 236.8799 15.34387028    17
STARLINK-36666          
1 69193C 26114M   26187.58173611  .00051735  00000+0  14788-2 0  1877
2 69193  53.1580 108.7640 0001056 100.6237  85.6971 15.35401947    15
STARLINK-37355          
1 69194C 26114N   26187.53104167  .00013419  00000+0  38332-3 0  1872
2 69194  53.1577 108.9198 0001143  92.4410 212.9979 15.35440697    18
STARLINK-37166          
1 69195C 26114P   26187.53729167  .00026257  00000+0  75051-3 0  1879
2 69195  53.1584 108.8632 0001132  88.7308 265.6565 15.35415642    19
STARLINK-36933          
1 69196C 26114Q   26187.56298611 -.01669200  00000+0 -48554-1 0  1878
2 69196  53.1585 108.7421 0001141  95.3679  39.6636 15.35717722    13
STARLINK-37419          
1 69197C 26114R   26187.50118056  .00003101  00000+0  91550-4 0  1873
2 69197  53.1581 108.9814 0001269  88.5223  88.9986 15.34413019    14
STARLINK-37321          
1 69198C 26114S   26187.53937500 -.00030618  00000+0 -90145-3 0  1873
2 69198  53.1585 108.7793 0001492 106.4590 293.8195 15.34516092    12
STARLINK-37406          
1 69199C 26114T   26187.51923611  .00011023  00000+0  19762-3 0  1873
2 69199  53.1581 109.1319 0001052  92.6620  75.6321 15.49329400    18
STARLINK-37761          
1 69200C 26114U   26187.55395833 -.01344000  00000+0 -24342-1 0  1874
2 69200  53.1585 108.9601 0000749  91.0795 273.6035 15.49718260    12
STARLINK-37754          
1 69201C 26114V   26187.53798611 -.02225000  00000+0 -49973-1 0  1870
2 69201  53.1592 108.8877 0001097  99.6629 248.0819 15.43899163    14
STARLINK-37649          
1 69202C 26114W   26187.50326389  .00001044  00000+0  31668-4 0  1878
2 69202  53.1599 108.8160 0001411  85.4942 178.7916 15.33568177    12
STARLINK-37604          
1 69203C 26114X   26187.52965278  .00021820  00000+0  62374-3 0  1878
2 69203  53.1592 108.7896 0001286  90.4745 274.9374 15.35414751    15
STARLINK-37669          
1 69204C 26114Y   26187.58312500 -.02103600  00000+0 -39405-1 0  1877
2 69204  53.1590 108.6496 0001389 108.2600 142.9563 15.49137591    14
STARLINK-37691          
1 69205C 26114Z   26187.61090278  .00063619  00000+0  18186-2 0  1872
2 69205  53.1601 108.2736 0001249  91.2679  71.1619 15.35393812    13
STARLINK-37671          
1 69206C 26114AA  26187.49493056 -.00002164  00000+0 -63945-4 0  1875
2 69206  53.1604 108.7982 0001571  95.9831 151.7529 15.34381870    19
STARLINK-37647          
1 69207C 26114AB  26187.53312500  .00024201  00000+0  71484-3 0  1875
2 69207  53.1602 108.6472 0001133  86.4894   0.6652 15.34386985    10
STARLINK-37562          
1 69208C 26114AC  26187.54770833  .00032861  00000+0  93943-3 0  1879
2 69208  53.1601 108.5188 0000671  52.3421 146.8831 15.35407551    13
STARLINK-37682          
1 69209C 26114AD  26187.59770833  .00058315  00000+0  17237-2 0  1878
2 69209  53.1595 108.2440 0000957  77.9545  52.7343 15.34348740    17
STARLINK-37402          
1 69210C 26114AE  26187.50465278  .00006581  00000+0  19429-3 0  1879
2 69210  53.1597 108.6559 0001315  88.6664 259.2140 15.34410836    11
STARLINK-37613          
1 69211C 26115A   26187.51298611  .00053139  00000+0  16501-2 0  1875
2 69211  97.2856 204.7619 0001722  61.8896 195.0752 15.33400793    12
STARLINK-37713          
1 69212C 26115B   26187.49770833  .00063836  00000+0  19817-2 0  1872
2 69212  97.2848 204.6114 0001119 128.1103  74.5401 15.33405952    15
STARLINK-37716          
1 69213C 26115C   26187.50604167  .00057689  00000+0  17908-2 0  1879
2 69213  97.2850 204.6151 0001531 116.4294 117.1925 15.33408934    17
STARLINK-37620          
1 69214C 26115D   26187.55326389  .00016273  00000+0  50519-3 0  1872
2 69214  97.2858 204.6743 0001359  84.9889  94.1356 15.33429690    14
STARLINK-37700          
1 69215C 26115E   26187.52965278  .00038210  00000+0  10605-2 0  1872
2 69215  97.2857 204.6490 0001352  86.1136 320.9551 15.36941941    13
STARLINK-37766          
1 69216C 26115F   26187.51576389  .00048930  00000+0  15192-2 0  1879
2 69216  97.2850 204.6564 0001190  85.8781 276.3762 15.33407660    11
STARLINK-37763          
1 69217C 26115G   26187.59979167 -.00026191  00000+0 -81316-3 0  1878
2 69217  97.2851 204.7446 0001360  88.4016  32.3977 15.33447287    19
STARLINK-37724          
1 69218C 26115H   26187.55812500  .00014364  00000+0  44593-3 0  1875
2 69218  97.2851 204.7124 0001407 124.2856 141.6600 15.33429561    18
STARLINK-37758          
1 69219C 26115J   26187.59006944 -.00021554  00000+0 -66918-3 0  1873
2 69219  97.2850 204.7560 0001386  87.5992  24.5632 15.33445587    10
STARLINK-37201          
1 69220C 26115K   26187.50256944  .00059034  00000+0  18331-2 0  1870
2 69220  97.2850 204.6645 0001545 109.1310 225.3345 15.33398976    18
STARLINK-37728          
1 69221C 26115L   26187.50118056  .00058872  00000+0  18279-2 0  1872
2 69221  97.2847 204.6750 0001596 120.0697 236.7296 15.33401560    13
